{
  "type": "FeatureCollection",
  "features": [
    {
      "type": "Feature",
      "properties": {
        "norad_id": 54741,
        "name": "GALAXY 35 (G-35)",
        "group": "intelsat",
        "lat": 0.009936326087637075,
        "lon": -30.638263409011657,
        "alt_km": 35781.40145855826,
        "timestamp": "2025-12-12T22:42:12.218104+00:00",
        "meta_object_name": "GALAXY 35 (G-35)",
        "meta_object_id": "2022-170A",
        "meta_epoch": "2025-12-12T06:11:23.049888",
        "meta_mean_motion": 1.00271242,
        "meta_eccentricity": 0.00024863,
        "meta_inclination": 0.0138,
        "meta_ra_of_asc_node": 271.307,
        "meta_arg_of_pericenter": 355.6347,
        "meta_mean_anomaly": 174.0196,
        "meta_ephemeris_type": 0,
        "meta_classification_type": "U",
        "meta_norad_cat_id": 54741,
        "meta_element_set_no": 999,
        "meta_rev_at_epoch": 1101,
        "meta_bstar": 0,
        "meta_mean_motion_dot": -1.52e-06,
        "meta_mean_motion_ddot": 0,
        "tle_line1": "1 54741U 22170A   25346.25790567 -.00000152  00000+0  00000+0 0  9991",
        "tle_line2": "2 54741   0.0138 271.3070 0002486 355.6347 174.0196  1.00271242 11018"
      },
      "geometry": {
        "type": "Point",
        "coordinates": [
          -30.638263409011657,
          0.009936326087637075
        ]
      }
    },
    {
      "type": "Feature",
      "properties": {
        "norad_id": 54742,
        "name": "GALAXY 36 (G-36)",
        "group": "intelsat",
        "lat": -0.012580611200202133,
        "lon": -26.564208422463917,
        "alt_km": 35784.77309074192,
        "timestamp": "2025-12-12T22:42:12.218115+00:00",
        "meta_object_name": "GALAXY 36 (G-36)",
        "meta_object_id": "2022-170B",
        "meta_epoch": "2025-12-12T06:12:30.442752",
        "meta_mean_motion": 1.00272255,
        "meta_eccentricity": 3.817e-05,
        "meta_inclination": 0.0297,
        "meta_ra_of_asc_node": 118.7266,
        "meta_arg_of_pericenter": 174.1919,
        "meta_mean_anomaly": 152.4184,
        "meta_ephemeris_type": 0,
        "meta_classification_type": "U",
        "meta_norad_cat_id": 54742,
        "meta_element_set_no": 999,
        "meta_rev_at_epoch": 1089,
        "meta_bstar": 0,
        "meta_mean_motion_dot": -1.75e-06,
        "meta_mean_motion_ddot": 0,
        "tle_line1": "1 54742U 22170B   25346.25868568 -.00000175  00000+0  00000+0 0  9994",
        "tle_line2": "2 54742   0.0297 118.7266 0000381 174.1919 152.4184  1.00272255 10894"
      },
      "geometry": {
        "type": "Point",
        "coordinates": [
          -26.564208422463917,
          -0.012580611200202133
        ]
      }
    },
    {
      "type": "Feature",
      "properties": {
        "norad_id": 57493,
        "name": "GALAXY 37 (G-37)",
        "group": "intelsat",
        "lat": -0.023129025349826336,
        "lon": -64.55643785035574,
        "alt_km": 35778.15346382642,
        "timestamp": "2025-12-12T22:42:12.218127+00:00",
        "meta_object_name": "GALAXY 37 (G-37)",
        "meta_object_id": "2023-112A",
        "meta_epoch": "2025-12-12T06:01:38.981568",
        "meta_mean_motion": 1.00271569,
        "meta_eccentricity": 0.00021597,
        "meta_inclination": 0.013,
        "meta_ra_of_asc_node": 30.1823,
        "meta_arg_of_pericenter": 235.6604,
        "meta_mean_anomaly": 138.772,
        "meta_ephemeris_type": 0,
        "meta_classification_type": "U",
        "meta_norad_cat_id": 57493,
        "meta_element_set_no": 999,
        "meta_rev_at_epoch": 866,
        "meta_bstar": 0,
        "meta_mean_motion_dot": 5.8e-07,
        "meta_mean_motion_ddot": 0,
        "tle_line1": "1 57493U 23112A   25346.25114562  .00000058  00000+0  00000+0 0  9994",
        "tle_line2": "2 57493   0.0130  30.1823 0002159 235.6604 138.7720  1.00271569  8663"
      },
      "geometry": {
        "type": "Point",
        "coordinates": [
          -64.55643785035574,
          -0.023129025349826336
        ]
      }
    }
  ]
}